[Satellite]
VERSION=1.1
NAME=THOR 6
NICKNAME=THOR 6
TLE1=1 36033U 09058B   15055.16353110 -.00000036  00000-0  00000+0 0  9992
TLE2=2 36033   0.0327 251.7586 0001562  90.0880 229.8489  1.00271167 19548
